24793,IRIDIUM 7,1997,100.29,-1.0,-,86.4,Inactive,0,LEO,USA,USA,Unknown,Unknown,Unknown,1 24793U 97020B   25118.28241453  .00000687  00000+0  23049-3 0  9990,2 24793  86.4022 197.7990 0001969  94.3596 265.7825 14.35902818464732,14.35902818,0.0001969,LEO
24795,IRIDIUM 5,1997,96.39,-1.0,-,86.38,Inactive,0,LEO,USA,USA,Unknown,Unknown,Unknown,1 24795U 97020D   25118.95135422  .00008601  00000+0  71807-3 0  9993,2 24795  86.3846 106.4353 0107710 316.1796  43.0922 14.93935263478111,14.93935263,0.010771,LEO
24796,IRIDIUM 4,1997,100.22,-1.0,-,86.4,Inactive,0,LEO,USA,USA,Unknown,Unknown,Unknown,1 24796U 97020E   25119.20258060  .00000630  00000+0  20693-3 0  9998,2 24796  86.4018 194.3274 0002203  91.7957 268.3493 14.36808495465460,14.36808495,0.0002203,LEO
24836,IRIDIUM 914,1997,99.94,-1.0,-,86.4,Inactive,0,LEO,Kazakhstan,USA,Unknown,Unknown,Unknown,1 24836U 97030A   25118.50900051  .00000766  00000+0  23312-3 0  9991,2 24836  86.3995 203.3615 0003177  66.0077 294.1455 14.40828457599971,14.40828457,0.0003177,LEO
24841,IRIDIUM 16,1997,100.09,-1.0,-,86.41,Inactive,0,LEO,Kazakhstan,USA,Unknown,Unknown,Unknown,1 24841U 97030F   25118.53364159  .00000852  00000+0  27155-3 0  9998,2 24841  86.4065 226.1150 0001756 163.5837 196.5418 14.38671664459861,14.38671664,0.0001756,LEO
24842,IRIDIUM 911,1997,99.48,-1.0,-,86.45,Inactive,0,LEO,Kazakhstan,USA,Unknown,Unknown,Unknown,1 24842U 97030G   25118.69325297  .00001134  00000+0  30255-3 0  9995,2 24842  86.4493 224.8700 0012039 260.6748  99.3094 14.47581147467921,14.47581147,0.0012039,LEO
24870,IRIDIUM 17,1997,100.15,-1.0,-,86.39,Inactive,0,LEO,USA,USA,Unknown,Unknown,Unknown,1 24870U 97034B   25118.83822153  .00000952  00000+0  30995-3 0  9997,2 24870  86.3937 255.4994 0002849 129.3024 230.8427 14.37780724456498,14.37780724,0.0002849,LEO
24871,IRIDIUM 920,1997,99.9,-1.0,-,86.4,Inactive,0,LEO,USA,USA,Unknown,Unknown,Unknown,1 24871U 97034C   25118.38299234  .00000945  00000+0  28505-3 0  9992,2 24871  86.3989 235.0254 0009705 240.1832 119.8403 14.41487389459406,14.41487389,0.0009705,LEO
